start=new Date('2022-02-10T00:00:00.000Z').valueOf();
sats=[{"SEMIMAJOR_AXIS":"6925.369","NORAD_CAT_ID":"47764","RA_OF_ASC_NODE":"72.4635","APOAPSIS":"548.295","MEAN_MOTION":"15.06393221","EPHEMERIS_TYPE":"0","MEAN_ELEMENT_THEORY":"SGP4","PERIOD":"95.593","MEAN_MOTION_DDOT":"0.0000000000000","TLE_LINE2":"2 47764  53.0550  72.4635 0001532  55.9609 304.1525 15.06393221 53099","LAUNCH_DATE":"2021-03-04","FILE":"3295989","PERIAPSIS":"546.173","MEAN_MOTION_DOT":"-0.00000319","REV_AT_EPOCH":"5309","INCLINATION":"53.0550","EPOCH":"2022-02-09T08:44:36.752928","REF_FRAME":"TEME","OBJECT_ID":"2021-017AU","DECAY_DATE":null,"CLASSIFICATION_TYPE":"U","OBJECT_NAME":"STARLINK-2182","ECCENTRICITY":"0.00015320","GP_ID":"195641050","RCS_SIZE":"LARGE","TIME_SYSTEM":"UTC","TLE_LINE1":"1 47764U 21017AU  22040.36431427 -.00000319  00000-0 -25389-5 0  9994","SITE":"AFETR","MEAN_ANOMALY":"304.1525","ELEMENT_SET_NO":"999","CENTER_NAME":"EARTH","BSTAR":"-0.00000253890000","OBJECT_TYPE":"PAYLOAD","COUNTRY_CODE":"US","ARG_OF_PERICENTER":"55.9609"},{"INCLINATION":"53.0548","REV_AT_EPOCH":"5335","EPOCH":"2022-02-09T10:05:30.338592","REF_FRAME":"TEME","OBJECT_ID":"2021-017AV","DECAY_DATE":null,"SEMIMAJOR_AXIS":"6887.999","NORAD_CAT_ID":"47765","RA_OF_ASC_NODE":"51.0371","MEAN_MOTION":"15.18669208","APOAPSIS":"510.788","PERIOD":"94.820","MEAN_ELEMENT_THEORY":"SGP4","EPHEMERIS_TYPE":"0","TLE_LINE2":"2 47765  53.0548  51.0371 0001342 108.9317 251.1823 15.18669208 53356","MEAN_MOTION_DDOT":"0.0000000000000","FILE":"3295989","LAUNCH_DATE":"2021-03-04","MEAN_MOTION_DOT":"0.00714195","PERIAPSIS":"508.939","TIME_SYSTEM":"UTC","RCS_SIZE":"LARGE","MEAN_ANOMALY":"251.1823","TLE_LINE1":"1 47765U 21017AV  22040.42049003  .00714195  00000-0  31698-1 0  9995","SITE":"AFETR","ELEMENT_SET_NO":"999","CENTER_NAME":"EARTH","OBJECT_TYPE":"PAYLOAD","BSTAR":"0.03169800000000","COUNTRY_CODE":"US","ARG_OF_PERICENTER":"108.9317","CLASSIFICATION_TYPE":"U","OBJECT_NAME":"STARLINK-2183","ECCENTRICITY":"0.00013420","GP_ID":"195639298"},{"GP_ID":"195639548","OBJECT_NAME":"STARLINK-2184","CLASSIFICATION_TYPE":"U","ECCENTRICITY":"0.00016070","CENTER_NAME":"EARTH","BSTAR":"0.00011842000000","OBJECT_TYPE":"PAYLOAD","COUNTRY_CODE":"US","ARG_OF_PERICENTER":"52.1904","RCS_SIZE":"LARGE","TIME_SYSTEM":"UTC","SITE":"AFETR","TLE_LINE1":"1 47766U 21017AW  22040.44909135  .00001483  00000-0  11842-3 0  9999","MEAN_ANOMALY":"307.9231","ELEMENT_SET_NO":"999","EPHEMERIS_TYPE":"0","PERIOD":"95.592","MEAN_ELEMENT_THEORY":"SGP4","MEAN_MOTION_DDOT":"0.0000000000000","TLE_LINE2":"2 47766  53.0555  72.0885 0001607  52.1904 307.9231 15.06398715 53042","LAUNCH_DATE":"2021-03-04","FILE":"3295989","PERIAPSIS":"546.105","MEAN_MOTION_DOT":"0.00001483","NORAD_CAT_ID":"47766","SEMIMAJOR_AXIS":"6925.352","RA_OF_ASC_NODE":"72.0885","APOAPSIS":"548.330","MEAN_MOTION":"15.06398715","DECAY_DATE":null,"REV_AT_EPOCH":"5304","INCLINATION":"53.0555","EPOCH":"2022-02-09T10:46:41.492640","OBJECT_ID":"2021-017AW","REF_FRAME":"TEME"},{"LAUNCH_DATE":"2021-03-04","FILE":"3295989","PERIAPSIS":"546.115","MEAN_MOTION_DOT":"0.00003896","EPHEMERIS_TYPE":"0","PERIOD":"95.593","MEAN_ELEMENT_THEORY":"SGP4","MEAN_MOTION_DDOT":"0.0000000000000","TLE_LINE2":"2 47767  53.0565  56.9739 0001626  57.9946 302.1201 15.06390890 53324","MEAN_MOTION":"15.06390890","APOAPSIS":"548.368","SEMIMAJOR_AXIS":"6925.376","NORAD_CAT_ID":"47767","RA_OF_ASC_NODE":"56.9739","DECAY_DATE":null,"OBJECT_ID":"2021-017AX","REF_FRAME":"TEME","REV_AT_EPOCH":"5332","INCLINATION":"53.0565","EPOCH":"2022-02-09T11:23:12.692544","GP_ID":"195640800","OBJECT_NAME":"STARLINK-2185","CLASSIFICATION_TYPE":"U","ECCENTRICITY":"0.00016260","COUNTRY_CODE":"US","ARG_OF_PERICENTER":"57.9946","CENTER_NAME":"EARTH","BSTAR":"0.00028035000000","OBJECT_TYPE":"PAYLOAD","ELEMENT_SET_NO":"999","RCS_SIZE":"LARGE","TIME_SYSTEM":"UTC","TLE_LINE1":"1 47767U 21017AX  22040.47445246  .00003896  00000-0  28035-3 0  9993","SITE":"AFETR","MEAN_ANOMALY":"302.1201"},{"APOAPSIS":"548.362","MEAN_MOTION":"15.06390645","SEMIMAJOR_AXIS":"6925.377","NORAD_CAT_ID":"47768","RA_OF_ASC_NODE":"72.5577","PERIAPSIS":"546.122","MEAN_MOTION_DOT":"0.00003763","LAUNCH_DATE":"2021-03-04","FILE":"3295989","MEAN_MOTION_DDOT":"0.0000000000000","TLE_LINE2":"2 47768  53.0547  72.5577 0001617  61.8025 298.3128 15.06390645 53064","EPHEMERIS_TYPE":"0","MEAN_ELEMENT_THEORY":"SGP4","PERIOD":"95.593","OBJECT_ID":"2021-017AY","REF_FRAME":"TEME","EPOCH":"2022-02-09T08:16:44.423904","REV_AT_EPOCH":"5306","INCLINATION":"53.0547","DECAY_DATE":null,"ECCENTRICITY":"0.00016170","CLASSIFICATION_TYPE":"U","OBJECT_NAME":"STARLINK-2189","GP_ID":"195640550","ELEMENT_SET_NO":"999","TLE_LINE1":"1 47768U 21017AY  22040.34495861  .00003763  00000-0  27145-3 0  9992","SITE":"AFETR","MEAN_ANOMALY":"298.3128","RCS_SIZE":"LARGE","TIME_SYSTEM":"UTC","ARG_OF_PERICENTER":"61.8025","COUNTRY_CODE":"US","BSTAR":"0.00027145000000","OBJECT_TYPE":"PAYLOAD","CENTER_NAME":"EARTH"},{"GP_ID":"195639799","OBJECT_NAME":"STARLINK-2192","CLASSIFICATION_TYPE":"U","ECCENTRICITY":"0.00017620","CENTER_NAME":"EARTH","BSTAR":"0.00029074000000","OBJECT_TYPE":"PAYLOAD","COUNTRY_CODE":"US","ARG_OF_PERICENTER":"65.4154","RCS_SIZE":"LARGE","TIME_SYSTEM":"UTC","SITE":"AFETR","TLE_LINE1":"1 47769U 21017AZ  22040.45785870  .00004051  00000-0  29074-3 0  9991","MEAN_ANOMALY":"294.7019","ELEMENT_SET_NO":"999","EPHEMERIS_TYPE":"0","PERIOD":"95.592","MEAN_ELEMENT_THEORY":"SGP4","MEAN_MOTION_DDOT":"0.0000000000000","TLE_LINE2":"2 47769  53.0548  37.0271 0001762  65.4154 294.7019 15.06395389 53594","LAUNCH_DATE":"2021-03-04","FILE":"3295989","PERIAPSIS":"546.007","MEAN_MOTION_DOT":"0.00004051","SEMIMAJOR_AXIS":"6925.363","NORAD_CAT_ID":"47769","RA_OF_ASC_NODE":"37.0271","APOAPSIS":"548.448","MEAN_MOTION":"15.06395389","DECAY_DATE":null,"REV_AT_EPOCH":"5359","INCLINATION":"53.0548","EPOCH":"2022-02-09T10:59:18.991680","OBJECT_ID":"2021-017AZ","REF_FRAME":"TEME"},{"ELEMENT_SET_NO":"999","RCS_SIZE":"LARGE","TIME_SYSTEM":"UTC","SITE":"AFETR","TLE_LINE1":"1 47770U 21017BA  22040.73107329  .00009398  00000-0  64865-3 0  9997","MEAN_ANOMALY":"309.2338","COUNTRY_CODE":"US","ARG_OF_PERICENTER":"50.8826","CENTER_NAME":"EARTH","BSTAR":"0.00064865000000","OBJECT_TYPE":"PAYLOAD","OBJECT_NAME":"STARLINK-2193","CLASSIFICATION_TYPE":"U","ECCENTRICITY":"0.00019710","GP_ID":"195647401","OBJECT_ID":"2021-017BA","REF_FRAME":"TEME","REV_AT_EPOCH":"5274","INCLINATION":"53.0528","EPOCH":"2022-02-09T17:32:44.732256","DECAY_DATE":null,"MEAN_MOTION":"15.06419380","APOAPSIS":"548.519","NORAD_CAT_ID":"47770","SEMIMAJOR_AXIS":"6925.289","RA_OF_ASC_NODE":"50.8516","LAUNCH_DATE":"2021-03-04","FILE":"3296189","PERIAPSIS":"545.789","MEAN_MOTION_DOT":"0.00009398","EPHEMERIS_TYPE":"0","PERIOD":"95.591","MEAN_ELEMENT_THEORY":"SGP4","MEAN_MOTION_DDOT":"0.0000000000000","TLE_LINE2":"2 47770  53.0528  50.8516 0001971  50.8826 309.2338 15.06419380 52745"},{"GP_ID":"195640300","ECCENTRICITY":"0.00014870","CLASSIFICATION_TYPE":"U","OBJECT_NAME":"STARLINK-2194","ARG_OF_PERICENTER":"66.6791","COUNTRY_CODE":"US","BSTAR":"0.00028741000000","OBJECT_TYPE":"PAYLOAD","CENTER_NAME":"EARTH","ELEMENT_SET_NO":"999","TLE_LINE1":"1 47771U 21017BB  22040.34406611  .00004001  00000-0  28741-3 0  9990","SITE":"AFETR","MEAN_ANOMALY":"293.4354","RCS_SIZE":"LARGE","TIME_SYSTEM":"UTC","PERIAPSIS":"546.221","MEAN_MOTION_DOT":"0.00004001","LAUNCH_DATE":"2021-03-04","FILE":"3295989","MEAN_MOTION_DDOT":"0.0000000000000","TLE_LINE2":"2 47771  53.0564  52.5493 0001487  66.6791 293.4354 15.06387749 53350","EPHEMERIS_TYPE":"0","PERIOD":"95.593","MEAN_ELEMENT_THEORY":"SGP4","MEAN_MOTION":"15.06387749","APOAPSIS":"548.281","SEMIMAJOR_AXIS":"6925.386","NORAD_CAT_ID":"47771","RA_OF_ASC_NODE":"52.5493","DECAY_DATE":null,"OBJECT_ID":"2021-017BB","REF_FRAME":"TEME","EPOCH":"2022-02-09T08:15:27.311904","REV_AT_EPOCH":"5335","INCLINATION":"53.0564"},{"MEAN_ANOMALY":"298.2699","SITE":"AFETR","TLE_LINE1":"1 47772U 21017BC  22040.33345460  .00004833  00000-0  34314-3 0  9990","TIME_SYSTEM":"UTC","RCS_SIZE":"LARGE","ELEMENT_SET_NO":"999","OBJECT_TYPE":"PAYLOAD","BSTAR":"0.00034314000000","CENTER_NAME":"EARTH","ARG_OF_PERICENTER":"61.8445","COUNTRY_CODE":"US","ECCENTRICITY":"0.00015430","CLASSIFICATION_TYPE":"U","OBJECT_NAME":"STARLINK-2195","GP_ID":"195641051","EPOCH":"2022-02-09T08:00:10.477440","INCLINATION":"53.0555","REV_AT_EPOCH":"5311","OBJECT_ID":"2021-017BC","REF_FRAME":"TEME","DECAY_DATE":null,"SEMIMAJOR_AXIS":"6925.348","NORAD_CAT_ID":"47772","RA_OF_ASC_NODE":"67.5909","MEAN_MOTION":"15.06400268","APOAPSIS":"548.281","TLE_LINE2":"2 47772  53.0555  67.5909 0001543  61.8445 298.2699 15.06400268 53116","MEAN_MOTION_DDOT":"0.0000000000000","MEAN_ELEMENT_THEORY":"SGP4","PERIOD":"95.592","EPHEMERIS_TYPE":"0","MEAN_MOTION_DOT":"0.00004833","PERIAPSIS":"546.144","FILE":"3295989","LAUNCH_DATE":"2021-03-04"},{"BSTAR":"0.00060921000000","OBJECT_TYPE":"PAYLOAD","CENTER_NAME":"EARTH","ARG_OF_PERICENTER":"55.8923","COUNTRY_CODE":"US","SITE":"AFETR","TLE_LINE1":"1 47773U 21017BD  22040.79420429  .00008807  00000-0  60921-3 0  9998","MEAN_ANOMALY":"304.2216","RCS_SIZE":"LARGE","TIME_SYSTEM":"UTC","ELEMENT_SET_NO":"999","GP_ID":"195647390","ECCENTRICITY":"0.00015840","CLASSIFICATION_TYPE":"U","OBJECT_NAME":"STARLINK-2196","DECAY_DATE":null,"EPOCH":"2022-02-09T19:03:39.250656","REV_AT_EPOCH":"5254","INCLINATION":"53.0549","REF_FRAME":"TEME","OBJECT_ID":"2021-017BD","MEAN_MOTION_DDOT":"0.0000000000000","TLE_LINE2":"2 47773  53.0549  65.5295 0001584  55.8923 304.2216 15.06411083 52541","EPHEMERIS_TYPE":"0","PERIOD":"95.591","MEAN_ELEMENT_THEORY":"SGP4","PERIAPSIS":"546.083","MEAN_MOTION_DOT":"0.00008807","LAUNCH_DATE":"2021-03-04","FILE":"3296189","SEMIMAJOR_AXIS":"6925.315","RA_OF_ASC_NODE":"65.5295","NORAD_CAT_ID":"47773","APOAPSIS":"548.277","MEAN_MOTION":"15.06411083"}];
